#aV2011  7  5  0  0   .00000000      96 DD+AD WGS84 FIT  NGA
## 1643 172800.00000000   900.00000000 55747  .0000000000000
+   32     1  2  3  4  5  6  7  8  9 10 11 12 13 14 15 16 17
+         18 19 20 21 22 23 24 25 26 27 28 29 30 31 32  0  0
+          0  0  0  0  0  0  0  0  0  0  0  0  0  0  0  0  0
+          0  0  0  0  0  0  0  0  0  0  0  0  0  0  0  0  0
+          0  0  0  0  0  0  0  0  0  0  0  0  0  0  0  0  0
++         0  0  0  0  0  0  0  0  0  0  0  0  0  0  0  0  0
++         0  0  0  0  0  0  0  0  0  0  0  0  0  0  0  0  0
++         0  0  0  0  0  0  0  0  0  0  0  0  0  0  0  0  0
++         0  0  0  0  0  0  0  0  0  0  0  0  0  0  0  0  0
++         0  0  0  0  0  0  0  0  0  0  0  0  0  0  0  0  0
%c cc cc ccc ccc cccc cccc cccc cccc ccccc ccccc ccccc ccccc
%c cc cc ccc ccc cccc cccc cccc cccc ccccc ccccc ccccc ccccc
%f  0.0000000  0.000000000  0.00000000000  0.000000000000000
%f  0.0000000  0.000000000  0.00000000000  0.000000000000000
%i    0    0    0    0      0      0      0      0         0
%i    0    0    0    0      0      0      0      0         0
/*      NGA, ST. LOUIS,MO.                                  
/*   EPHEMERIS COMPUTED FROM  3 DAYS OF DATA                
/* CCCCCCCCCCCCCCCCCCCCCCCCCCCCCCCCCCCCCCCCCCCCCCCCCCCCCCCCC
/* CCCCCCCCCCCCCCCCCCCCCCCCCCCCCCCCCCCCCCCCCCCCCCCCCCCCCCCCC
*  2011  7  5 15 30   .00000000                                                 
P  1  13546.492504  13773.432722  17880.565694     94.968427                    
V  1   -218.694515  23505.809928 -17548.153841       .012646                    
P  2   6982.558717  19096.105674  17395.050327    345.130703                    
V  2 -19627.675812  -9779.334512  18187.917948       .018458                    
P  3    858.059506 -18401.940563 -19455.356795    737.874963                    
V  3  20585.128390 -12488.711514  13325.436936       .049030                    
P  4  -8766.974060  12930.343294  21271.956956    163.586645                    
V  4 -23422.375627 -14591.706641   -434.338962       .108560                    
P  5   1922.180268  26134.912126  -3973.348318   -184.885343                    
V  5  -3253.308175   4941.430628  31130.059497      -.055668                    
P  6   6608.306015 -18812.620721 -17277.178732     56.192539                    
V  6  20373.108790  -9598.455815  18322.914987      -.840352                    
P  7 -22342.092738  -2806.591147 -14259.625803     16.769676                    
V  7 -14259.048751 -11102.539608  24304.272633       .014011                    
P  8 -16799.933205   3837.825093 -20348.754626      8.418151                    
V  8 -20229.716957 -15768.383538  13169.283849       .001228                    
P  9  21185.146243  15676.526545  -3794.956252     90.770701                    
V  9  -4573.386779   -381.523715 -31783.687542       .024664                    
P 10  -9369.238331  21818.861826  11287.676884     -5.771948                    
V 10  -2201.287220 -14973.514018  26979.308624      -.012083                    
P 11 -21920.287643 -13419.956240  -7685.137851   -165.439505                    
V 11  10256.735080  -1371.196574 -27714.776953      -.032800                    
P 12  11945.288037  14597.713262  18786.214361      7.107423                    
V 12  -2397.458548  23626.246691 -16674.526326       .025624                    
P 13 -24382.550105   3364.427694   9927.882416    262.502394                    
V 13  11062.280286  -6575.612164  28908.275963      -.017306                    
P 14  20530.014614 -14985.579398   7601.152802    159.919116                    
V 14   9458.214289  -2043.768912 -30357.731978       .021124                    
P 15  13011.251809   9917.616826 -20945.478150   -117.601769                    
V 15 -22931.524438  13534.030327  -7670.473618       .021287                    
P 16   -987.724616 -26035.774860  -4221.280875   -183.481112                    
V 16   2905.043426  -5222.762582  31706.151827      -.024527                    
P 17 -19755.831527  15808.410435   7834.007732    182.828628                    
V 17 -10027.364443   1855.474449 -29782.884022      -.005185                    
P 18  15297.176418  -7124.355099 -20101.990290    145.676156                    
V 18     -1.421326  26490.279135  -9615.048974       .019057                    
P 19  -9365.954935 -12443.114684 -21556.547607   -158.769054                    
V 19  25036.463618 -10935.100620  -4213.650440      -.041372                    
P 20 -14231.062689 -11449.792616  19159.448899     50.440302                    
V 20   1549.576682 -24717.904986 -13458.724007       .003237                    
P 21  21769.688201    506.275694 -15180.422852   -155.814957                    
V 21  15488.240904  12679.949385  21414.904229      -.025922                    
P 22  11201.214798 -19736.642030 -13532.530833    146.631999                    
V 22   2054.657747  17740.518646 -23973.265081      -.003925                    
P 23 -19147.943923  -4243.714749  18081.845585    294.138939                    
V 23  19664.993826 -11621.974188  17752.679631      -.028366                    
P 24 -22203.806361 -14845.999809    908.829675    404.155625                    
V 24    825.913839  -3053.253102 -31244.395240       .030804                    
P 25  15105.507817    737.420899  21808.825273      7.516550                    
V 25   -679.245841  27731.532771   -439.304067       .019293                    
P 26    301.261403  15684.477355 -21964.646977    -81.481227                    
V 26 -24504.652558  10061.288064   7427.262670      -.118599                    
P 27  19067.431283  16749.582770  -7747.835935    281.724229                    
V 27 -10183.006631  -3573.022905 -29920.222138       .036725                    
P 28 -12258.084001  16551.636343 -16105.582425     49.703246                    
V 28   -197.875311 -21582.125658 -21594.143894       .027040                    
P 29  23821.035591  -2584.073473  11486.729820    220.769072                    
V 29 -12019.192531   8427.003337  27042.753344       .030212                    
P 30   3570.287153 -25672.444867   5327.826594     19.838898                    
V 30   2847.876808   7284.350456  30807.078951       .042936                    
P 31   5502.458432 -14047.540288  22041.419477    106.233765                    
V 31  23297.534139  14563.864142   3703.291254       .059928                    
P 32  -8889.358843 -19775.248357  15893.541521   -286.017316                    
V 32   4114.332475 -19171.136352 -21519.211866      -.070947                    
EOF
